NORAD_CAT_ID,OBJECT_NAME,OBJECT_TYPE,EPOCH,MEAN_MOTION,ECCENTRICITY,INCLINATION,RA_OF_ASC_NODE,ARG_OF_PERICENTER,MEAN_ANOMALY,BSTAR,MEAN_MOTION_DOT,MEAN_MOTION_DDOT,TLE_LINE0,TLE_LINE1,TLE_LINE2,SEMIMAJOR_AXIS,PERIOD,APOGEE,PERIGEE,DECAYED
51152.0,STARLINK-3364,PAYLOAD,2024-01-08 03:10:03,15.08850183,0.0001451,53.2172,262.1777,83.5016,276.6141,0.00019168,2.765e-05,0.0,0 STARLINK-3364,1 51152U 22005BA  24008.13198696  .00002765  00000-0  19168-3 0  9998,2 51152  53.2172 262.1777 0001451  83.5016 276.6141 15.08850183109109,6917.849,95.437,540.718,538.71,0.0
51152.0,STARLINK-3364,PAYLOAD,2024-01-08 22:14:41,15.08839684,0.000153,53.2173,258.6086,86.9693,273.1474,0.00035449,5.358e-05,0.0,0 STARLINK-3364,1 51152U 22005BA  24008.92687155  .00005358  00000-0  35449-3 0  9999,2 51152  53.2173 258.6086 0001530  86.9693 273.1474 15.08839684109226,6917.881,95.438,540.805,538.688,0.0
51152.0,STARLINK-3364,PAYLOAD,2024-01-09 22:05:28,15.08853577,0.0001373,53.2167,254.1491,64.832,295.2814,-6.9008e-05,-1.386e-05,0.0,0 STARLINK-3364,1 51152U 22005BA  24009.92046341 -.00001386  00000-0 -69008-4 0  9994,2 51152  53.2167 254.1491 0001373  64.8320 295.2814 15.08853577109373,6917.839,95.437,540.654,538.754,0.0
51152.0,STARLINK-3364,PAYLOAD,2024-01-10 01:16:14,15.08856002,0.0001381,53.2167,253.5537,96.7248,263.3901,3.8357e-05,3.23e-06,0.0,0 STARLINK-3364,1 51152U 22005BA  24010.05294264  .00000323  00000-0  38357-4 0  9990,2 51152  53.2167 253.5537 0001381  96.7248 263.3901 15.08856002110505,6917.831,95.437,540.652,538.741,0.0
51152.0,STARLINK-3364,PAYLOAD,2024-01-10 15:34:43,15.08841438,0.0001758,53.2174,250.8792,77.319,282.7999,-3.9606e-05,-9.18e-06,0.0,0 STARLINK-3364,1 51152U 22005BA  24010.64911414 -.00000918  00000-0 -39606-4 0  9998,2 51152  53.2174 250.8792 0001758  77.3190 282.7999 15.08841438110593,6917.876,95.437,540.957,538.525,0.0
51152.0,STARLINK-3364,PAYLOAD,2024-01-11 01:07:01,15.08844797,0.000159,53.2169,249.094,84.1778,275.9396,3.8704e-05,3.28e-06,0.0,0 STARLINK-3364,1 51152U 22005BA  24011.04654916  .00000328  00000-0  38704-4 0  9995,2 51152  53.2169 249.0940 0001590  84.1778 275.9396 15.08844797109543,6917.866,95.437,540.831,538.631,0.0
51152.0,STARLINK-3364,PAYLOAD,2024-01-11 20:11:39,15.08840659,0.000133,53.2151,245.5247,106.0259,254.088,6.1158e-05,6.86e-06,0.0,0 STARLINK-3364,1 51152U 22005BA  24011.84142875  .00000686  00000-0  61158-4 0  9995,2 51152  53.2151 245.5247 0001330 106.0259 254.0880 15.08840659110771,6917.878,95.438,540.663,538.823,0.0
51152.0,STARLINK-3364,PAYLOAD,2024-01-11 21:47:02,15.08843956,0.0001352,53.2147,245.2273,103.5359,256.5784,0.00010887,1.445e-05,0.0,0 STARLINK-3364,1 51152U 22005BA  24011.90766740  .00001445  00000-0  10887-3 0  9991,2 51152  53.2147 245.2273 0001352 103.5359 256.5784 15.08843956109679,6917.868,95.437,540.669,538.798,0.0
51152.0,STARLINK-3364,PAYLOAD,2024-01-12 00:57:48,15.08847274,0.0001366,53.2148,244.6321,107.3608,252.7533,0.00016169,2.287e-05,0.0,0 STARLINK-3364,1 51152U 22005BA  24012.04014573  .00002287  00000-0  16169-3 0  9991,2 51152  53.2148 244.6321 0001366 107.3608 252.7533 15.08847274109690,6917.858,95.437,540.668,538.778,0.0
51152.0,STARLINK-3364,PAYLOAD,2024-01-12 21:37:49,15.08841413,0.000137,53.2154,240.7647,107.517,252.5972,0.0001037,1.363e-05,0.0,0 STARLINK-3364,1 51152U 22005BA  24012.90127068  .00001363  00000-0  10370-3 0  9992,2 51152  53.2154 240.7647 0001370 107.5170 252.5972 15.08841413109825,6917.876,95.437,540.689,538.793,0.0
51152.0,STARLINK-3364,PAYLOAD,2024-01-13 00:48:36,15.08842022,0.0001328,53.2153,240.1702,101.6293,258.4849,9.5801e-05,1.237e-05,0.0,0 STARLINK-3364,1 51152U 22005BA  24013.03375062  .00001237  00000-0  95801-4 0  9999,2 51152  53.2153 240.1702 0001328 101.6293 258.4849 15.08842022110955,6917.874,95.437,540.658,538.821,0.0
51152.0,STARLINK-3364,PAYLOAD,2024-01-14 14:57:51,15.08840101,0.0001322,53.216,233.0342,98.5863,261.5279,7.0256e-05,8.3e-06,0.0,0 STARLINK-3364,1 51152U 22005BA  24014.62351324  .00000830  00000-0  70256-4 0  9995,2 51152  53.2160 233.0342 0001322  98.5863 261.5279 15.08840101110087,6917.88,95.438,540.66,538.831,0.0
51152.0,STARLINK-3364,PAYLOAD,2024-01-14 19:44:00,15.08842029,0.0001308,53.2161,232.1423,95.1391,264.9751,7.7954e-05,9.53e-06,0.0,0 STARLINK-3364,1 51152U 22005BA  24014.82223170  .00000953  00000-0  77954-4 0  9992,2 51152  53.2161 232.1423 0001308  95.1391 264.9751 15.08842029111221,6917.874,95.437,540.644,538.834,0.0
51152.0,STARLINK-3364,PAYLOAD,2024-01-15 00:30:10,15.08843077,0.0001311,53.2161,231.2501,96.0948,264.0193,8.2858e-05,1.031e-05,0.0,0 STARLINK-3364,1 51152U 22005BA  24015.02095071  .00001031  00000-0  82858-4 0  9999,2 51152  53.2161 231.2501 0001311  96.0948 264.0193 15.08843077110145,6917.871,95.437,540.643,538.829,0.0
51152.0,STARLINK-3364,PAYLOAD,2024-01-15 17:59:25,15.08836394,0.0001333,53.2162,227.9784,93.5471,266.5674,6.8929e-05,8.09e-06,0.0,0 STARLINK-3364,1 51152U 22005BA  24015.74959624  .00000809  00000-0  68929-4 0  9996,2 51152  53.2162 227.9784 0001333  93.5471 266.5674 15.08836394111368,6917.891,95.438,540.679,538.834,0.0
51152.0,STARLINK-3364,PAYLOAD,2024-01-15 19:34:48,15.08836061,0.0001326,53.2163,227.681,92.9559,267.1585,6.2324e-05,7.04e-06,0.0,0 STARLINK-3364,1 51152U 22005BA  24015.81583651  .00000704  00000-0  62324-4 0  9994,2 51152  53.2163 227.6810 0001326  92.9559 267.1585 15.08836061110265,6917.892,95.438,540.675,538.84,0.0
51152.0,STARLINK-3364,PAYLOAD,2024-01-16 14:39:25,15.08839253,0.0001277,53.2156,224.1132,93.8676,266.2462,4.629e-05,4.49e-06,0.0,0 STARLINK-3364,1 51152U 22005BA  24016.61071636  .00000449  00000-0  46290-4 0  9998,2 51152  53.2156 224.1132 0001277  93.8676 266.2462 15.08839253110384,6917.883,95.438,540.631,538.864,0.0
51152.0,STARLINK-3364,PAYLOAD,2024-01-16 19:25:35,15.08840502,0.0001331,53.2163,223.2216,97.162,262.9524,5.0359e-05,5.14e-06,0.0,0 STARLINK-3364,1 51152U 22005BA  24016.80943532  .00000514  00000-0  50359-4 0  9996,2 51152  53.2163 223.2216 0001331  97.1620 262.9524 15.08840502111520,6917.879,95.438,540.665,538.823,0.0
51152.0,STARLINK-3364,PAYLOAD,2024-01-16 21:00:58,15.08841451,0.0001281,53.2161,222.9241,93.0579,267.0559,5.5982e-05,6.03e-06,0.0,0 STARLINK-3364,1 51152U 22005BA  24016.87567449  .00000603  00000-0  55982-4 0  9998,2 51152  53.2161 222.9241 0001281  93.0579 267.0559 15.08841451110420,6917.876,95.437,540.627,538.855,0.0
51152.0,STARLINK-3364,PAYLOAD,2024-01-17 00:11:44,15.08842865,0.0001181,53.2162,222.3304,100.4458,259.6667,5.5463e-05,5.95e-06,0.0,0 STARLINK-3364,1 51152U 22005BA  24017.00815326  .00000595  00000-0  55463-4 0  9998,2 51152  53.2162 222.3304 0001181 100.4458 259.6667 15.08842865110442,6917.872,95.437,540.554,538.92,0.0
51152.0,STARLINK-3364,PAYLOAD,2024-01-17 20:51:45,15.08840517,0.0001249,53.2158,218.4647,87.2751,272.8384,8.7475e-05,1.105e-05,0.0,0 STARLINK-3364,1 51152U 22005BA  24017.86927588  .00001105  00000-0  87475-4 0  9992,2 51152  53.2158 218.4647 0001249  87.2751 272.8384 15.08840517110575,6917.879,95.438,540.608,538.88,0.0
51152.0,STARLINK-3364,PAYLOAD,2024-01-18 12:45:36,15.08839688,0.0001234,53.2156,215.4904,92.1163,267.9971,4.514e-05,4.31e-06,0.0,0 STARLINK-3364,1 51152U 22005BA  24018.53167822  .00000431  00000-0  45140-4 0  9998,2 51152  53.2156 215.4904 0001234  92.1163 267.9971 15.08839688110677,6917.881,95.438,540.6,538.893,0.0
51152.0,STARLINK-3364,PAYLOAD,2024-01-18 20:42:32,15.0884144,0.0001211,53.2155,214.0047,77.1992,282.9135,8.3087e-05,1.035e-05,0.0,0 STARLINK-3364,1 51152U 22005BA  24018.86287633  .00001035  00000-0  83087-4 0  9990,2 51152  53.2155 214.0047 0001211  77.1992 282.9135 15.08841440110721,6917.876,95.437,540.579,538.903,0.0
51152.0,STARLINK-3364,PAYLOAD,2024-01-19 12:36:23,15.08840425,0.0001118,53.2164,211.0321,82.2606,277.8513,8.3028e-05,1.034e-05,0.0,0 STARLINK-3364,1 51152U 22005BA  24019.52527617  .00001034  00000-0  83028-4 0  9997,2 51152  53.2164 211.0321 0001118  82.2606 277.8513 15.08840425111937,6917.879,95.438,540.518,538.971,0.0
51152.0,STARLINK-3364,PAYLOAD,2024-01-19 18:57:56,15.08842271,0.0001342,53.2154,209.8418,80.3532,279.7612,5.687e-05,6.17e-06,0.0,0 STARLINK-3364,1 51152U 22005BA  24019.79023605  .00000617  00000-0  56870-4 0  9995,2 51152  53.2154 209.8418 0001342  80.3532 279.7612 15.08842271110867,6917.873,95.437,540.667,538.81,0.0
51152.0,STARLINK-3364,PAYLOAD,2024-01-20 18:48:43,15.08841964,0.0001335,53.2163,205.3816,88.4752,271.6393,5.532e-05,5.93e-06,0.0,0 STARLINK-3364,1 51152U 22005BA  24020.78383544  .00000593  00000-0  55320-4 0  9999,2 51152  53.2163 205.3816 0001335  88.4752 271.6393 15.08841964112121,6917.874,95.437,540.663,538.816,0.0
51152.0,STARLINK-3364,PAYLOAD,2024-01-20 21:59:29,15.08843767,0.0001305,53.216,204.7863,92.0884,268.0257,6.4931e-05,7.46e-06,0.0,0 STARLINK-3364,1 51152U 22005BA  24020.91631336  .00000746  00000-0  64931-4 0  9997,2 51152  53.2160 204.7863 0001305  92.0884 268.0257 15.08843767111038,6917.869,95.437,540.637,538.831,0.0
51152.0,STARLINK-3364,PAYLOAD,2024-01-21 21:50:16,15.08842692,0.0001412,53.2165,200.3242,104.7475,255.3674,3.9809e-05,3.46e-06,0.0,0 STARLINK-3364,1 51152U 22005BA  24021.90991319  .00000346  00000-0  39809-4 0  9999,2 51152  53.2165 200.3242 0001412 104.7475 255.3674 15.08842692111186,6917.872,95.437,540.714,538.76,0.0
51152.0,STARLINK-3364,PAYLOAD,2024-01-22 12:08:45,15.08836161,0.0001412,53.2167,197.6468,100.1896,259.9256,2.3325e-05,8.3e-07,0.0,0 STARLINK-3364,1 51152U 22005BA  24022.50607899  .00000083  00000-0  23325-4 0  9997,2 51152  53.2167 197.6468 0001412 100.1896 259.9256 15.08836161112386,6917.892,95.438,540.734,538.78,0.0
51152.0,STARLINK-3364,PAYLOAD,2024-01-22 18:30:17,15.0883828,0.0001394,53.2168,196.4574,97.5643,262.5508,3.5504e-05,2.77e-06,0.0,0 STARLINK-3364,1 51152U 22005BA  24022.77103757  .00000277  00000-0  35504-4 0  9997,2 51152  53.2168 196.4574 0001394  97.5643 262.5508 15.08838280111316,6917.886,95.438,540.715,538.786,0.0
